ORBCOMM FM103 [+]       
1 40091U 14040F   23266.03224564  .00001060  00000+0  27684-3 0  9994
2 40091  47.0054 122.2657 0002306 260.0827  99.9798 14.55896259488833
ORBCOMM FM114 [+]       
1 41179U 15081A   23265.72486779  .00001496  00000+0  37486-3 0  9995
2 41179  47.0043  33.0774 0002014 293.5770  66.4903 14.55922439412094
ORBCOMM FM119 [-]       
1 41180U 15081B   23265.96615219  .00000972  00000+0  25700-3 0  9990
2 41180  47.0013 301.1371 0001301 345.6457  14.4391 14.55890698413382
ORBCOMM FM105 [-]       
1 41181U 15081C   23265.95684107  .00000594  00000+0  21769-3 0  9993
2 41181  47.0008 247.2901 0002178 339.1698  20.9093 14.44013704409305
ORBCOMM FM110 [+]       
1 41182U 15081D   23265.77043620  .00001495  00000+0  37483-3 0  9994
2 41182  47.0032  32.2912 0002056 177.3036 182.7860 14.55911222411979
ORBCOMM FM118 [+]       
1 41183U 15081E   23265.74788087  .00001474  00000+0  37007-3 0  9994
2 41183  47.0053  32.6588 0002230 172.7527 187.3390 14.55918491412070
ORBCOMM FM112 [+]       
1 41184U 15081F   23266.01294242  .00001159  00000+0  29937-3 0  9994
2 41184  46.9994 300.1792 0001719 332.4692  27.6101 14.55859154413383
ORBCOMM FM113 [+]       
1 41185U 15081G   23265.78333432  .00001110  00000+0  28794-3 0  9990
2 41185  47.0016 301.4778 0001190 323.7563  36.3241 14.55912140413288
